0 COSMOS 2251 DEB
1 33971U 93036FE  13281.74754451  .00000441  00000-0  16667-3 0  2504
2 33971 074.0269 145.9503 0020521 243.3057 181.2811 14.34149315242874
0 COSMOS 2251 DEB
1 33971U 93036FE  13282.79625876  .00000417  00000-0  15789-3 0  2516
2 33971 074.0267 144.0299 0020509 241.3545 195.5069 14.34151045243024
0 COSMOS 2251 DEB
1 33971U 93036FE  13284.06652369  .00000522  00000-0  19524-3 0  2524
2 33971 074.0265 141.7039 0020466 238.7810 273.7553 14.34151929243203
0 COSMOS 2251 DEB
1 33971U 93036FE  13285.72438208  .00000452  00000-0  17039-3 0  2534
2 33971 074.0262 138.6678 0020427 235.4447 193.0938 14.34153422243448
0 COSMOS 2251 DEB
1 33971U 93036FE  13287.06820428  .00000523  00000-0  19578-3 0  2542
2 33971 074.0261 136.2068 0020372 232.7322 291.1151 14.34154598243638
0 COSMOS 2251 DEB
1 33971U 93036FE  13288.72538377  .00000633  00000-0  23471-3 0  2555
2 33971 074.0259 133.1718 0020313 229.3635 207.0027 14.34157577243871
0 COSMOS 2251 DEB
1 33971U 93036FE  13290.12795130  .00000569  00000-0  21205-3 0  2566
2 33971 074.0260 130.6032 0020243 226.5208 248.3518 14.34160115244079
0 COSMOS 2251 DEB
1 33971U 93036FE  13291.65238825  .00000674  00000-0  24941-3 0  2576
2 33971 074.0261 127.8114 0020233 223.5657 198.7876 14.34161779244299
0 COSMOS 2251 DEB
1 33971U 93036FE  13292.77176635  .00000768  00000-0  28304-3 0  2582
2 33971 074.0262 125.7614 0020176 221.3141 218.0542 14.34163072244454
0 COSMOS 2251 DEB
1 33971U 93036FE  13293.97176947  .00000756  00000-0  27870-3 0  2596
2 33971 074.0262 123.5638 0020124 218.9075 293.5772 14.34165317244623
0 COSMOS 2251 DEB
1 33971U 93036FE  13295.70126978  .00000873  00000-0  32032-3 0  2606
2 33971 074.0263 120.3964 0020059 215.4542 222.8561 14.34167462244870
